[
    {
        "Altitude(m)": 571727.9263655092,
        "Argument of Periapsis(deg)": 0.019868973332140504,
        "Eccentricity": 0.0,
        "Inclination(deg)": 53.0,
        "Latitude(deg)": -52.84558497709393,
        "Longitude(deg)": -35.89440631300418,
        "Mean Anomaly(deg)": -95.17972139726724,
        "RAAN(deg)": 164.97043010558406,
        "Satellite Name": "Starlink Shell 1 740",
        "Satellite Number": 740,
        "Semi-Major Axis(m)": 6931778.249405717,
        "Time(s)": 570
    },
    {
        "Altitude(m)": 571754.6435819652,
        "Argument of Periapsis(deg)": 0.02021755181165174,
        "Eccentricity": 0.0,
        "Inclination(deg)": 53.0,
        "Latitude(deg)": -52.915038627622614,
        "Longitude(deg)": -34.909809583029784,
        "Mean Anomaly(deg)": -94.55289019371047,
        "RAAN(deg)": 164.96991133550654,
        "Satellite Name": "Starlink Shell 1 740",
        "Satellite Number": 740,
        "Semi-Major Axis(m)": 6931778.249405717,
        "Time(s)": 580
    },
    {
        "Altitude(m)": 571777.9158255092,
        "Argument of Periapsis(deg)": 0.020566130291162974,
        "Eccentricity": 0.0,
        "Inclination(deg)": 53.0,
        "Latitude(deg)": -52.97561081159561,
        "Longitude(deg)": -33.92214105773952,
        "Mean Anomaly(deg)": -93.92605899015382,
        "RAAN(deg)": 164.9693925654291,
        "Satellite Name": "Starlink Shell 1 740",
        "Satellite Number": 740,
        "Semi-Major Axis(m)": 6931778.249405717,
        "Time(s)": 590
    },
    {
        "Altitude(m)": 571797.7337866744,
        "Argument of Periapsis(deg)": 0.020914708770674213,
        "Eccentricity": 0.0,
        "Inclination(deg)": 53.0,
        "Latitude(deg)": -53.027257550741645,
        "Longitude(deg)": -32.9318082770551,
        "Mean Anomaly(deg)": -93.29922778659706,
        "RAAN(deg)": 164.96887379535164,
        "Satellite Name": "Starlink Shell 1 740",
        "Satellite Number": 740,
        "Semi-Major Axis(m)": 6931778.249405717,
        "Time(s)": 600
    },
    {
        "Altitude(m)": 571814.0895340579,
        "Argument of Periapsis(deg)": 0.021263287250185448,
        "Eccentricity": 0.0,
        "Inclination(deg)": 53.0,
        "Latitude(deg)": -53.06994112064873,
        "Longitude(deg)": -31.9392265329307,
        "Mean Anomaly(deg)": -92.67239658304038,
        "RAAN(deg)": 164.96835502527415,
        "Satellite Name": "Starlink Shell 1 740",
        "Satellite Number": 740,
        "Semi-Major Axis(m)": 6931778.249405717,
        "Time(s)": 610
    },
    {
        "Altitude(m)": 571826.9765177625,
        "Argument of Periapsis(deg)": 0.021611865729696686,
        "Eccentricity": 0.0,
        "Inclination(deg)": 53.0,
        "Latitude(deg)": -53.10363018543327,
        "Longitude(deg)": -30.94481721189354,
        "Mean Anomaly(deg)": -92.04556537948363,
        "RAAN(deg)": 164.96783625519666,
        "Satellite Name": "Starlink Shell 1 740",
        "Satellite Number": 740,
        "Semi-Major Axis(m)": 6931778.249405717,
        "Time(s)": 620
    },
    {
        "Altitude(m)": 571836.3895722186,
        "Argument of Periapsis(deg)": 0.02196044420920792,
        "Eccentricity": 0.0,
        "Inclination(deg)": 53.0,
        "Latitude(deg)": -53.12829991057153,
        "Longitude(deg)": -29.949007771399646,
        "Mean Anomaly(deg)": -91.41873417592689,
        "RAAN(deg)": 164.96731748511922,
        "Satellite Name": "Starlink Shell 1 740",
        "Satellite Number": 740,
        "Semi-Major Axis(m)": 6931778.249405717,
        "Time(s)": 630
    },
    {
        "Altitude(m)": 571842.3249184373,
        "Argument of Periapsis(deg)": 0.02230902268871916,
        "Eccentricity": 0.0,
        "Inclination(deg)": 53.0,
        "Latitude(deg)": -53.14393205294196,
        "Longitude(deg)": -28.95222915575447,
        "Mean Anomaly(deg)": -90.7919029723702,
        "RAAN(deg)": 164.9667987150417,
        "Satellite Name": "Starlink Shell 1 740",
        "Satellite Number": 740,
        "Semi-Major Axis(m)": 6931778.249405717,
        "Time(s)": 640
    },
    {
        "Altitude(m)": 571844.7801656283,
        "Argument of Periapsis(deg)": 0.022657601168230398,
        "Eccentricity": 0.0,
        "Inclination(deg)": 53.0,
        "Latitude(deg)": -53.1505150273245,
        "Longitude(deg)": -27.954915703224525,
        "Mean Anomaly(deg)": -90.16507176881349,
        "RAAN(deg)": 164.96627994496427,
        "Satellite Name": "Starlink Shell 1 740",
        "Satellite Number": 740,
        "Semi-Major Axis(m)": 6931778.249405717,
        "Time(s)": 650
    },
    {
        "Altitude(m)": 571843.7543122617,
        "Argument of Periapsis(deg)": 0.023006179647741636,
        "Eccentricity": 0.0,
        "Inclination(deg)": 53.0,
        "Latitude(deg)": -53.14804394878351,
        "Longitude(deg)": -26.957503351026038,
        "Mean Anomaly(deg)": -89.5382405652568,
        "RAAN(deg)": 164.96576117488678,
        "Satellite Name": "Starlink Shell 1 740",
        "Satellite Number": 740,
        "Semi-Major Axis(m)": 6931778.249405717,
        "Time(s)": 660
    },
    {
        "Altitude(m)": 571839.247746466,
        "Argument of Periapsis(deg)": 0.023354758127252868,
        "Eccentricity": 0.0,
        "Inclination(deg)": 53.0,
        "Latitude(deg)": -53.13652065057404,
        "Longitude(deg)": -25.96042782856461,
        "Mean Anomaly(deg)": -88.91140936170004,
        "RAAN(deg)": 164.96524240480932,
        "Satellite Name": "Starlink Shell 1 740",
        "Satellite Number": 740,
        "Semi-Major Axis(m)": 6931778.249405717,
        "Time(s)": 670
    },
    {
        "Altitude(m)": 571831.2622459071,
        "Argument of Periapsis(deg)": 0.023703336606764106,
        "Eccentricity": 0.0,
        "Inclination(deg)": 53.0,
        "Latitude(deg)": -53.1159536774197,
        "Longitude(deg)": -24.96412436137094,
        "Mean Anomaly(deg)": -88.28457815814333,
        "RAAN(deg)": 164.96472363473183,
        "Satellite Name": "Starlink Shell 1 740",
        "Satellite Number": 740,
        "Semi-Major Axis(m)": 6931778.249405717,
        "Time(s)": 680
    },
    {
        "Altitude(m)": 571819.8009769897,
        "Argument of Periapsis(deg)": 0.024051915086275345,
        "Eccentricity": 0.0,
        "Inclination(deg)": 53.0,
        "Latitude(deg)": -53.08635825421552,
        "Longitude(deg)": -23.96902586957264,
        "Mean Anomaly(deg)": -87.65774695458663,
        "RAAN(deg)": 164.9642048646544,
        "Satellite Name": "Starlink Shell 1 740",
        "Satellite Number": 740,
        "Semi-Major Axis(m)": 6931778.249405717,
        "Time(s)": 690
    },
    {
        "Altitude(m)": 571804.8684935062,
        "Argument of Periapsis(deg)": 0.024400493565786583,
        "Eccentricity": 0.0,
        "Inclination(deg)": 53.0,
        "Latitude(deg)": -53.04775623042636,
        "Longitude(deg)": -22.975561183275694,
        "Mean Anomaly(deg)": -87.03091575102994,
        "RAAN(deg)": 164.96368609457687,
        "Satellite Name": "Starlink Shell 1 740",
        "Satellite Number": 740,
        "Semi-Major Axis(m)": 6931778.249405717,
        "Time(s)": 700
    },
    {
        "Altitude(m)": 571786.4707346682,
        "Argument of Periapsis(deg)": 0.024749072045297815,
        "Eccentricity": 0.0,
        "Inclination(deg)": 53.0,
        "Latitude(deg)": -53.00017600065867,
        "Longitude(deg)": -21.984154796990605,
        "Mean Anomaly(deg)": -86.4040845474732,
        "RAAN(deg)": 164.96316732449944,
        "Satellite Name": "Starlink Shell 1 740",
        "Satellite Number": 740,
        "Semi-Major Axis(m)": 6931778.249405717,
        "Time(s)": 710
    },
    {
        "Altitude(m)": 571764.6150225461,
        "Argument of Periapsis(deg)": 0.025097650524809053,
        "Eccentricity": 0.0,
        "Inclination(deg)": 53.0,
        "Latitude(deg)": -52.94365240207489,
        "Longitude(deg)": -20.995225146261383,
        "Mean Anomaly(deg)": -85.77725334391644,
        "RAAN(deg)": 164.96264855442195,
        "Satellite Name": "Starlink Shell 1 740",
        "Satellite Number": 740,
        "Semi-Major Axis(m)": 6931778.249405717,
        "Time(s)": 720
    },
    {
        "Altitude(m)": 571739.3100588993,
        "Argument of Periapsis(deg)": 0.02544622900432029,
        "Eccentricity": 0.0,
        "Inclination(deg)": 53.0,
        "Latitude(deg)": -52.878226589516764,
        "Longitude(deg)": -20.009182927807544,
        "Mean Anomaly(deg)": -85.15042214035977,
        "RAAN(deg)": 164.96212978434448,
        "Satellite Name": "Starlink Shell 1 740",
        "Satellite Number": 740,
        "Semi-Major Axis(m)": 6931778.249405717,
        "Time(s)": 730
    },
    {
        "Altitude(m)": 571710.565921421,
        "Argument of Periapsis(deg)": 0.02579480748383153,
        "Eccentricity": 0.0,
        "Inclination(deg)": 53.0,
        "Latitude(deg)": -52.803945889378845,
        "Longitude(deg)": -19.026430983910355,
        "Mean Anomaly(deg)": -84.52359093680307,
        "RAAN(deg)": 164.961611014267,
        "Satellite Name": "Starlink Shell 1 740",
        "Satellite Number": 740,
        "Semi-Major Axis(m)": 6931778.249405717,
        "Time(s)": 740
    },
    {
        "Altitude(m)": 571678.3940593803,
        "Argument of Periapsis(deg)": 0.026143385963342765,
        "Eccentricity": 0.0,
        "Inclination(deg)": 53.0,
        "Latitude(deg)": -52.72086363342864,
        "Longitude(deg)": -18.04736273247981,
        "Mean Anomaly(deg)": -83.89675973324637,
        "RAAN(deg)": 164.96109224418956,
        "Satellite Name": "Starlink Shell 1 740",
        "Satellite Number": 740,
        "Semi-Major Axis(m)": 6931778.249405717,
        "Time(s)": 750
    }
]